{
  "norad_id": 57197,
  "name": "A-SEANSAT-PG1",
  "history": [
    {
      "epoch": "2026-04-10T05:58:06.347712Z",
      "apogee_km": 466.05929254065177,
      "perigee_km": 457.34150938288167,
      "latitude_deg": 2.4345944885084155e-05,
      "longitude_deg": -119.52329718244107,
      "height_km": 461.1002713737906,
      "semi_major_axis_km": 6839.837400961766,
      "eccentricity": 0.00063728,
      "inclination_deg": 97.5127,
      "raan_deg": 168.4884,
      "arg_perigee_deg": 328.3524,
      "mean_anomaly_deg": 31.7335,
      "mean_motion_rev_day": 15.34737467
    },
    {
      "epoch": "2026-04-11T19:31:22.581120Z",
      "apogee_km": 465.82223153508676,
      "perigee_km": 457.305436056844,
      "latitude_deg": -2.277705722182656e-05,
      "longitude_deg": 37.21075784679973,
      "height_km": 461.3361920017772,
      "semi_major_axis_km": 6839.700833795965,
      "eccentricity": 0.0006226,
      "inclination_deg": 97.5129,
      "raan_deg": 170.0824,
      "arg_perigee_deg": 321.6342,
      "mean_anomaly_deg": 38.4457,
      "mean_motion_rev_day": 15.34783433
    },
    {
      "epoch": "2026-04-13T05:56:49.319520Z",
      "apogee_km": 465.66181325713114,
      "perigee_km": 457.281924470999,
      "latitude_deg": -3.838854039921825e-05,
      "longitude_deg": -119.10349806537684,
      "height_km": 461.59950188749,
      "semi_major_axis_km": 6839.608868864065,
      "eccentricity": 0.0006126,
      "inclination_deg": 97.5128,
      "raan_deg": 171.5433,
      "arg_perigee_deg": 315.4148,
      "mean_anomaly_deg": 44.6601,
      "mean_motion_rev_day": 15.34814388
    },
    {
      "epoch": "2026-04-14T19:29:59.574048Z",
      "apogee_km": 465.5209554622161,
      "perigee_km": 457.25197159481013,
      "latitude_deg": -7.172130872429167e-06,
      "longitude_deg": 37.65543162369764,
      "height_km": 461.9180291892626,
      "semi_major_axis_km": 6839.523463528513,
      "eccentricity": 0.0006045,
      "inclination_deg": 97.5129,
      "raan_deg": 173.1372,
      "arg_perigee_deg": 308.622,
      "mean_anomaly_deg": 51.4481,
      "mean_motion_rev_day": 15.34843136
    },
    {
      "epoch": "2026-04-15T20:32:05.028000Z",
      "apogee_km": 465.4259558391004,
      "perigee_km": 457.2350095818065,
      "latitude_deg": -1.0393803586071327e-05,
      "longitude_deg": 22.1669645551131,
      "height_km": 462.1562043089275,
      "semi_major_axis_km": 6839.467482710454,
      "eccentricity": 0.0005988,
      "inclination_deg": 97.5126,
      "raan_deg": 174.1996,
      "arg_perigee_deg": 303.9435,
      "mean_anomaly_deg": 56.1238,
      "mean_motion_rev_day": 15.3486198
    },
    {
      "epoch": "2026-04-16T20:00:16.701696Z",
      "apogee_km": 465.3572370914653,
      "perigee_km": 457.20191676513605,
      "latitude_deg": -5.81582603348728e-05,
      "longitude_deg": 30.150657356376687,
      "height_km": 462.37612126470356,
      "semi_major_axis_km": 6839.416576928301,
      "eccentricity": 0.0005962,
      "inclination_deg": 97.5124,
      "raan_deg": 175.1958,
      "arg_perigee_deg": 299.6343,
      "mean_anomaly_deg": 60.4305,
      "mean_motion_rev_day": 15.34879116
    },
    {
      "epoch": "2026-04-17T22:36:12.801312Z",
      "apogee_km": 465.265685710242,
      "perigee_km": 457.16064540304706,
      "latitude_deg": -8.02530672521924e-06,
      "longitude_deg": -8.796374900566526,
      "height_km": 462.6269165489668,
      "semi_major_axis_km": 6839.350165556644,
      "eccentricity": 0.00059253,
      "inclination_deg": 97.5121,
      "raan_deg": 176.3249,
      "arg_perigee_deg": 294.7916,
      "mean_anomaly_deg": 65.271,
      "mean_motion_rev_day": 15.34901472
    },
    {
      "epoch": "2026-04-18T20:30:29.499840Z",
      "apogee_km": 465.1647105787815,
      "perigee_km": 457.11351473895957,
      "latitude_deg": 7.570919603423553e-05,
      "longitude_deg": 22.664145442753917,
      "height_km": 462.8514458171257,
      "semi_major_axis_km": 6839.27611265887,
      "eccentricity": 0.0005886,
      "inclination_deg": 97.5117,
      "raan_deg": 177.2546,
      "arg_perigee_deg": 290.3653,
      "mean_anomaly_deg": 69.6958,
      "mean_motion_rev_day": 15.34926401
    },
    {
      "epoch": "2026-04-19T19:58:37.210368Z",
      "apogee_km": 465.06772557884597,
      "perigee_km": 457.03714934138134,
      "latitude_deg": -5.119740957158047e-06,
      "longitude_deg": 30.66449807775665,
      "height_km": 463.0567524986627,
      "semi_major_axis_km": 6839.189437460113,
      "eccentricity": 0.0005871,
      "inclination_deg": 97.5113,
      "raan_deg": 178.2509,
      "arg_perigee_deg": 286.0355,
      "mean_anomaly_deg": 74.0241,
      "mean_motion_rev_day": 15.3495558
    },
    {
      "epoch": "2026-04-20T13:11:13.924608Z",
      "apogee_km": 465.0204784718526,
      "perigee_km": 456.97369009096747,
      "latitude_deg": 4.1690078070822135e-05,
      "longitude_deg": 132.53541678085355,
      "height_km": 463.21232011690853,
      "semi_major_axis_km": 6839.13408428141,
      "eccentricity": 0.00058829,
      "inclination_deg": 97.5111,
      "raan_deg": 178.9816,
      "arg_perigee_deg": 282.9022,
      "mean_anomaly_deg": 77.1564,
      "mean_motion_rev_day": 15.34974215
    },
    {
      "epoch": "2026-04-21T20:28:40.274688Z",
      "apogee_km": 464.88923559220893,
      "perigee_km": 456.85750181520234,
      "latitude_deg": 7.380492116120232e-06,
      "longitude_deg": 23.218764601312415,
      "height_km": 463.49783957230716,
      "semi_major_axis_km": 6839.010368703705,
      "eccentricity": 0.0005872,
      "inclination_deg": 97.5108,
      "raan_deg": 180.3098,
      "arg_perigee_deg": 276.9993,
      "mean_anomaly_deg": 83.0582,
      "mean_motion_rev_day": 15.35015866
    },
    {
      "epoch": "2026-04-22T19:56:43.172736Z",
      "apogee_km": 464.8220296740383,
      "perigee_km": 456.77397096566165,
      "latitude_deg": 3.015700681539918e-05,
      "longitude_deg": 31.239609195677083,
      "height_km": 463.68228005161313,
      "semi_major_axis_km": 6838.93500031985,
      "eccentricity": 0.0005884,
      "inclination_deg": 97.5108,
      "raan_deg": 181.3065,
      "arg_perigee_deg": 273.272,
      "mean_anomaly_deg": 86.785,
      "mean_motion_rev_day": 15.35041241
    },
    {
      "epoch": "2026-04-23T13:09:16.419744Z",
      "apogee_km": 464.7859529135958,
      "perigee_km": 456.69802106842053,
      "latitude_deg": 6.353675304271478e-05,
      "longitude_deg": 133.12471605540554,
      "height_km": 463.9048992728059,
      "semi_major_axis_km": 6838.878986991008,
      "eccentricity": 0.00059132,
      "inclination_deg": 97.5109,
      "raan_deg": 182.0369,
      "arg_perigee_deg": 269.3079,
      "mean_anomaly_deg": 90.7487,
      "mean_motion_rev_day": 15.350601
    },
    {
      "epoch": "2026-04-24T20:26:36.656160Z",
      "apogee_km": 464.70037485609373,
      "perigee_km": 456.5567728107726,
      "latitude_deg": -4.701760366192203e-05,
      "longitude_deg": 23.83381887629991,
      "height_km": 464.2215806164519,
      "semi_major_axis_km": 6838.765573833433,
      "eccentricity": 0.0005954,
      "inclination_deg": 97.5111,
      "raan_deg": 183.3653,
      "arg_perigee_deg": 263.2471,
      "mean_anomaly_deg": 96.8094,
      "mean_motion_rev_day": 15.35098286
    },
    {
      "epoch": "2026-04-25T19:54:34.709760Z",
      "apogee_km": 464.61730315089153,
      "perigee_km": 456.4163894584026,
      "latitude_deg": -2.5325077898107482e-05,
      "longitude_deg": 31.874406299996576,
      "height_km": 464.40212958474785,
      "semi_major_axis_km": 6838.653846304647,
      "eccentricity": 0.0005996,
      "inclination_deg": 97.5111,
      "raan_deg": 184.3615,
      "arg_perigee_deg": 259.1627,
      "mean_anomaly_deg": 100.8941,
      "mean_motion_rev_day": 15.35135906
    },
    {
      "epoch": "2026-04-26T22:30:13.989888Z",
      "apogee_km": 464.5189286311215,
      "perigee_km": 456.261543763957,
      "latitude_deg": 1.0371586288901524e-05,
      "longitude_deg": -7.002751881299855,
      "height_km": 464.6163711762079,
      "semi_major_axis_km": 6838.5272361975385,
      "eccentricity": 0.00060374,
      "inclination_deg": 97.5112,
      "raan_deg": 185.4902,
      "arg_perigee_deg": 254.379,
      "mean_anomaly_deg": 105.6787,
      "mean_motion_rev_day": 15.35178539
    },
    {
      "epoch": "2026-04-27T20:24:15.981408Z",
      "apogee_km": 464.4566913646504,
      "perigee_km": 456.0933134856841,
      "latitude_deg": 7.644279946155414e-06,
      "longitude_deg": 24.519427449375332,
      "height_km": 464.7719427660223,
      "semi_major_axis_km": 6838.412002425167,
      "eccentricity": 0.0006115,
      "inclination_deg": 97.5112,
      "raan_deg": 186.4201,
      "arg_perigee_deg": 250.6948,
      "mean_anomaly_deg": 109.3634,
      "mean_motion_rev_day": 15.35217343
    },
    {
      "epoch": "2026-04-28T19:52:07.643136Z",
      "apogee_km": 464.3938874760197,
      "perigee_km": 455.95951135915857,
      "latitude_deg": 4.998931217975778e-05,
      "longitude_deg": 32.58691877422196,
      "height_km": 464.9486062036435,
      "semi_major_axis_km": 6838.313699417589,
      "eccentricity": 0.0006167,
      "inclination_deg": 97.5113,
      "raan_deg": 187.4165,
      "arg_perigee_deg": 246.858,
      "mean_anomaly_deg": 113.2014,
      "mean_motion_rev_day": 15.35250447
    },
    {
      "epoch": "2026-04-29T19:19:57.484416Z",
      "apogee_km": 464.3358313874751,
      "perigee_km": 455.8113180850096,
      "latitude_deg": -4.571741934018064e-06,
      "longitude_deg": 40.66172839075043,
      "height_km": 465.13537279648597,
      "semi_major_axis_km": 6838.210574736242,
      "eccentricity": 0.0006233,
      "inclination_deg": 97.5111,
      "raan_deg": 188.4126,
      "arg_perigee_deg": 242.8152,
      "mean_anomaly_deg": 117.2456,
      "mean_motion_rev_day": 15.35285176
    }
  ]
}